{"type": "FeatureCollection", "features": [ {"type": "Feature", "properties": {"norad_id": 34529, "name": "IRIDIUM 33 DEB", "group": "iridium-33-debris", "lat": -55.86624842628112, "lon": 28.570960513206128, "alt_km": 766.3069334223992, "timestamp": "2025-12-16T03:53:27.440465+00:00", "meta": {"OBJECT_NAME": "IRIDIUM 33 DEB", "OBJECT_ID": "1997-051HW", "EPOCH": "2025-12-15T03:08:44.604384", "MEAN_MOTION": 14.40617592, "ECCENTRICITY": 0.0005103, "INCLINATION": 86.364, "RA_OF_ASC_NODE": 34.3925, "ARG_OF_PERICENTER": 169.3864, "MEAN_ANOMALY": 190.7444, "EPHEMERIS_TYPE": 0, "CLASSIFICATION_TYPE": "U", "NORAD_CAT_ID": 34529, "ELEMENT_SET_NO": 999, "REV_AT_EPOCH": 88176, "BSTAR": 0.0001148178, "MEAN_MOTION_DOT": 3.86e-06, "MEAN_MOTION_DDOT": 0}, "tle": {"line1": "1 34529U 97051HW  25349.13107181  .00000386  00000+0  11482-3 0  9995", "line2": "2 34529  86.3640  34.3925 0005103 169.3864 190.7444 14.40617592881762"}}, "geometry": {"type": "Point", "coordinates": [28.570960513206128, -55.86624842628112]}}, {"type": "Feature", "properties": {"norad_id": 34538, "name": "IRIDIUM 33 DEB", "group": "iridium-33-debris", "lat": 13.819441587230306, "lon": -176.85997338649884, "alt_km": 770.9874573112238, "timestamp": "2025-12-16T03:53:27.440475+00:00", "meta": {"OBJECT_NAME": "IRIDIUM 33 DEB", "OBJECT_ID": "1997-051JF", "EPOCH": "2025-12-15T02:29:33.974016", "MEAN_MOTION": 14.42663617, "ECCENTRICITY": 0.00326013, "INCLINATION": 86.2774, "RA_OF_ASC_NODE": 4.5209, "ARG_OF_PERICENTER": 319.9523, "MEAN_ANOMALY": 113.6008, "EPHEMERIS_TYPE": 0, "CLASSIFICATION_TYPE": "U", "NORAD_CAT_ID": 34538, "ELEMENT_SET_NO": 999, "REV_AT_EPOCH": 87790, "BSTAR": 0.00070844828, "MEAN_MOTION_DOT": 2.389e-05, "MEAN_MOTION_DDOT": 0}, "tle": {"line1": "1 34538U 97051JF  25349.10386544  .00002389  00000+0  70845-3 0  9997", "line2": "2 34538  86.2774   4.5209 0032601 319.9523 113.6008 14.42663617877903"}}, "geometry": {"type": "Point", "coordinates": [-176.85997338649884, 13.819441587230306]}}, {"type": "Feature", "properties": {"norad_id": 34540, "name": "IRIDIUM 33 DEB", "group": "iridium-33-debris", "lat": -85.1574521356931, "lon": 175.66387171030755, "alt_km": 657.1772667617288, "timestamp": "2025-12-16T03:53:27.440486+00:00", "meta": {"OBJECT_NAME": "IRIDIUM 33 DEB", "OBJECT_ID": "1997-051JH", "EPOCH": "2025-12-14T21:37:43.057056", "MEAN_MOTION": 14.75375098, "ECCENTRICITY": 0.00167778, "INCLINATION": 86.3098, "RA_OF_ASC_NODE": 306.6186, "ARG_OF_PERICENTER": 151.5752, "MEAN_ANOMALY": 262.2222, "EPHEMERIS_TYPE": 0, "CLASSIFICATION_TYPE": "U", "NORAD_CAT_ID": 34540, "ELEMENT_SET_NO": 999, "REV_AT_EPOCH": 89053, "BSTAR": 0.0010616231, "MEAN_MOTION_DOT": 7.243e-05, "MEAN_MOTION_DDOT": 0}, "tle": {"line1": "1 34540U 97051JH  25348.90119279  .00007243  00000+0  10616-2 0  9999", "line2": "2 34540  86.3098 306.6186 0016777 151.5752 262.2222 14.75375098890538"}}, "geometry": {"type": "Point", "coordinates": [175.66387171030755, -85.1574521356931]}}, {"type": "Feature", "properties": {"norad_id": 34648, "name": "IRIDIUM 33 DEB", "group": "iridium-33-debris", "lat": -9.729830751156491, "lon": -80.05633539705568, "alt_km": 794.7897056090842, "timestamp": "2025-12-16T03:53:27.440496+00:00", "meta": {"OBJECT_NAME": "IRIDIUM 33 DEB", "OBJECT_ID": "1997-051JZ", "EPOCH": "2025-12-15T05:49:12.584928", "MEAN_MOTION": 14.11584763, "ECCENTRICITY": 0.01820017, "INCLINATION": 86.3893, "RA_OF_ASC_NODE": 280.9354, "ARG_OF_PERICENTER": 291.0865, "MEAN_ANOMALY": 67.0943, "EPHEMERIS_TYPE": 0, "CLASSIFICATION_TYPE": "U", "NORAD_CAT_ID": 34648, "ELEMENT_SET_NO": 999, "REV_AT_EPOCH": 84996, "BSTAR": 0.0047262066, "MEAN_MOTION_DOT": 0.00010051, "MEAN_MOTION_DDOT": 0}, "tle": {"line1": "1 34648U 97051JZ  25349.24250677  .00010051  00000+0  47262-2 0  9992", "line2": "2 34648  86.3893 280.9354 0182001 291.0865  67.0943 14.11584763849963"}}, "geometry": {"type": "Point", "coordinates": [-80.05633539705568, -9.729830751156491]}}, {"type": "Feature", "properties": {"norad_id": 34651, "name": "IRIDIUM 33 DEB", "group": "iridium-33-debris", "lat": -42.825814492362824, "lon": -37.42397673600204, "alt_km": 723.2688701294119, "timestamp": "2025-12-16T03:53:27.440507+00:00", "meta": {"OBJECT_NAME": "IRIDIUM 33 DEB", "OBJECT_ID": "1997-051KC", "EPOCH": "2025-12-14T20:32:02.678784", "MEAN_MOTION": 14.25858999, "ECCENTRICITY": 0.01421805, "INCLINATION": 86.2825, "RA_OF_ASC_NODE": 139.6773, "ARG_OF_PERICENTER": 197.246, "MEAN_ANOMALY": 162.3876, "EPHEMERIS_TYPE": 0, "CLASSIFICATION_TYPE": "U", "NORAD_CAT_ID": 34651, "ELEMENT_SET_NO": 999, "REV_AT_EPOCH": 85926, "BSTAR": 0.0023063549, "MEAN_MOTION_DOT": 6.121e-05, "MEAN_MOTION_DDOT": 0}, "tle": {"line1": "1 34651U 97051KC  25348.85558656  .00006121  00000+0  23064-2 0  9997", "line2": "2 34651  86.2825 139.6773 0142180 197.2460 162.3876 14.25858999859266"}}, "geometry": {"type": "Point", "coordinates": [-37.42397673600204, -42.825814492362824]}}, {"type": "Feature", "properties": {"norad_id": 34652, "name": "IRIDIUM 33 DEB", "group": "iridium-33-debris", "lat": -1.0237543651671406, "lon": -21.587549844858962, "alt_km": 684.3326967152807, "timestamp": "2025-12-16T03:53:27.440517+00:00", "meta": {"OBJECT_NAME": "IRIDIUM 33 DEB", "OBJECT_ID": "1997-051KD", "EPOCH": "2025-12-15T06:49:48.156096", "MEAN_MOTION": 14.62085676, "ECCENTRICITY": 0.00257243, "INCLINATION": 86.3314, "RA_OF_ASC_NODE": 338.8687, "ARG_OF_PERICENTER": 288.9565, "MEAN_ANOMALY": 133.9117, "EPHEMERIS_TYPE": 0, "CLASSIFICATION_TYPE": "U", "NORAD_CAT_ID": 34652, "ELEMENT_SET_NO": 999, "REV_AT_EPOCH": 88521, "BSTAR": 0.00068193421, "MEAN_MOTION_DOT": 3.462e-05, "MEAN_MOTION_DDOT": 0}, "tle": {"line1": "1 34652U 97051KD  25349.28458514  .00003462  00000+0  68193-3 0  9996", "line2": "2 34652  86.3314 338.8687 0025724 288.9565 133.9117 14.62085676885217"}}, "geometry": {"type": "Point", "coordinates": [-21.587549844858962, -1.0237543651671406]}}, {"type": "Feature", "properties": {"norad_id": 34690, "name": "IRIDIUM 33 DEB", "group": "iridium-33-debris", "lat": 43.84540933929039, "lon": -147.9830439231683, "alt_km": 708.9105625974535, "timestamp": "2025-12-16T03:53:27.440528+00:00", "meta": {"OBJECT_NAME": "IRIDIUM 33 DEB", "OBJECT_ID": "1997-051KM", "EPOCH": "2025-12-14T22:22:43.760352", "MEAN_MOTION": 14.55104553, "ECCENTRICITY": 0.00105916, "INCLINATION": 86.3786, "RA_OF_ASC_NODE": 36.0386, "ARG_OF_PERICENTER": 22.3695, "MEAN_ANOMALY": 156.1415, "EPHEMERIS_TYPE": 0, "CLASSIFICATION_TYPE": "U", "NORAD_CAT_ID": 34690, "ELEMENT_SET_NO": 999, "REV_AT_EPOCH": 88126, "BSTAR": 0.00037009207, "MEAN_MOTION_DOT": 1.618e-05, "MEAN_MOTION_DDOT": 0}, "tle": {"line1": "1 34690U 97051KM  25348.93245093  .00001618  00000+0  37009-3 0  9998", "line2": "2 34690  86.3786  36.0386 0010591  22.3695 156.1415 14.55104553881262"}}, "geometry": {"type": "Point", "coordinates": [-147.9830439231683, 43.84540933929039]}}, {"type": "Feature", "properties": {"norad_id": 34693, "name": "IRIDIUM 33 DEB", "group": "iridium-33-debris", "lat": 5.462207114949824, "lon": -57.52187772023293, "alt_km": 475.0508320290919, "timestamp": "2025-12-16T03:53:27.440539+00:00", "meta": {"OBJECT_NAME": "IRIDIUM 33 DEB", "OBJECT_ID": "1997-051KQ", "EPOCH": "2025-12-15T08:06:08.441280", "MEAN_MOTION": 15.28606689, "ECCENTRICITY": 0.00131925, "INCLINATION": 86.304, "RA_OF_ASC_NODE": 302.5341, "ARG_OF_PERICENTER": 48.7698, "MEAN_ANOMALY": 102.4811, "EPHEMERIS_TYPE": 0, "CLASSIFICATION_TYPE": "U", "NORAD_CAT_ID": 34693, "ELEMENT_SET_NO": 999, "REV_AT_EPOCH": 88954, "BSTAR": 0.0030946192, "MEAN_MOTION_DOT": 0.00087157, "MEAN_MOTION_DDOT": 0}, "tle": {"line1": "1 34693U 97051KQ  25349.33759770  .00087157  00000+0  30946-2 0  9992", "line2": "2 34693  86.3040 302.5341 0013192  48.7698 102.4811 15.28606689889546"}}, "geometry": {"type": "Point", "coordinates": [-57.52187772023293, 5.462207114949824]}}, {"type": "Feature", "properties": {"norad_id": 34696, "name": "IRIDIUM 33 DEB", "group": "iridium-33-debris", "lat": 37.72828514870592, "lon": 28.889446853313014, "alt_km": 697.6658159851213, "timestamp": "2025-12-16T03:53:27.440549+00:00", "meta": {"OBJECT_NAME": "IRIDIUM 33 DEB", "OBJECT_ID": "1997-051KT", "EPOCH": "2025-12-14T21:07:54.379200", "MEAN_MOTION": 14.65232108, "ECCENTRICITY": 0.00739537, "INCLINATION": 86.1853, "RA_OF_ASC_NODE": 26.5266, "ARG_OF_PERICENTER": 160.2166, "MEAN_ANOMALY": 322.3396, "EPHEMERIS_TYPE": 0, "CLASSIFICATION_TYPE": "U", "NORAD_CAT_ID": 34696, "ELEMENT_SET_NO": 999, "REV_AT_EPOCH": 86704, "BSTAR": 0.0028727685, "MEAN_MOTION_DOT": 0.0001615, "MEAN_MOTION_DDOT": 0}, "tle": {"line1": "1 34696U 97051KT  25348.88049050  .00016150  00000+0  28728-2 0  9997", "line2": "2 34696  86.1853  26.5266 0073953 160.2166 322.3396 14.65232108867042"}}, "geometry": {"type": "Point", "coordinates": [28.889446853313014, 37.72828514870592]}}, {"type": "Feature", "properties": {"norad_id": 34765, "name": "IRIDIUM 33 DEB", "group": "iridium-33-debris", "lat": -15.431443516148082, "lon": 30.280723208650763, "alt_km": 770.9094075014355, "timestamp": "2025-12-16T03:53:27.440560+00:00", "meta": {"OBJECT_NAME": "IRIDIUM 33 DEB", "OBJECT_ID": "1997-051LJ", "EPOCH": "2025-12-15T03:12:34.564032", "MEAN_MOTION": 14.40470773, "ECCENTRICITY": 0.00156839, "INCLINATION": 86.3391, "RA_OF_ASC_NODE": 31.7345, "ARG_OF_PERICENTER": 203.214, "MEAN_ANOMALY": 211.8048, "EPHEMERIS_TYPE": 0, "CLASSIFICATION_TYPE": "U", "NORAD_CAT_ID": 34765, "ELEMENT_SET_NO": 999, "REV_AT_EPOCH": 87648, "BSTAR": 0.00039980899, "MEAN_MOTION_DOT": 1.292e-05, "MEAN_MOTION_DDOT": 0}, "tle": {"line1": "1 34765U 97051LJ  25349.13373338  .00001292  00000+0  39981-3 0  9997", "line2": "2 34765  86.3391  31.7345 0015683 203.2140 211.8048 14.40470773876489"}}, "geometry": {"type": "Point", "coordinates": [30.280723208650763, -15.431443516148082]}}]}